[{"OBJECT_NAME":"LEMUR-2-LIA-MARTIN","OBJECT_ID":"2025-052AQ","EPOCH":"2026-03-09T16:52:54.660288","MEAN_MOTION":14.96805944,"ECCENTRICITY":0.00038171,"INCLINATION":97.6996,"RA_OF_ASC_NODE":322.6614,"ARG_OF_PERICENTER":139.7155,"MEAN_ANOMALY":220.435,"EPHEMERIS_TYPE":0,"CLASSIFICATION_TYPE":"U","NORAD_CAT_ID":63248,"ELEMENT_SET_NO":999,"REV_AT_EPOCH":5379,"BSTAR":0.0006082839,"MEAN_MOTION_DOT":6.911e-5,"MEAN_MOTION_DDOT":0},{"OBJECT_NAME":"STARLINK-34507","OBJECT_ID":"2025-129AB","EPOCH":"2026-03-09T23:29:09.257568","MEAN_MOTION":14.98355595,"ECCENTRICITY":0.0002128,"INCLINATION":70,"RA_OF_ASC_NODE":73.6013,"ARG_OF_PERICENTER":228.6362,"MEAN_ANOMALY":131.4614,"EPHEMERIS_TYPE":0,"CLASSIFICATION_TYPE":"U","NORAD_CAT_ID":64437,"ELEMENT_SET_NO":999,"REV_AT_EPOCH":4133,"BSTAR":0.00029522686,"MEAN_MOTION_DOT":3.434e-5,"MEAN_MOTION_DDOT":0}]
